SATGUS                  
1 62713U 25009DJ  26068.70670884  .00009370  00000+0  76063-3 0  9990
2 62713  97.7097 150.9679 0005670  96.3538 263.8332 14.99840473 62643
STARLINK-32913          
1 63098U 25037X   26068.88989764  .00007967  00000+0  67472-3 0  9991
2 63098  70.0039 353.8791 0002619 266.0186  94.0674 14.98330525 58643
